JCSAT-3A                
1 29272U 06033A   26180.55044823 -.00000334  00000+0  00000+0 0  9991
2 29272   0.0168 318.4520 0002527 148.3057 137.0312  1.00270753 47863
KOREASAT 5 (MUGUNGWHA 5)
1 29349U 06034A   26180.53959912 -.00000348  00000+0  00000+0 0  9994
2 29349   1.8157  82.8518 0001930  52.9395  89.1441  1.00270951 41444
DIRECTV 9S              
1 29494U 06043A   26180.49713808 -.00000104  00000+0  00000+0 0  9992
2 29494   2.4513  80.7656 0005445  20.9179 253.6645  1.00271881 51503
OPTUS D1                
1 29495U 06043B   26180.47596416 -.00000176  00000+0  00000+0 0  9994
2 29495   3.0651  79.5117 0003720  11.4720 149.8777  1.00270542 72242
BADR-4                  
1 29526U 06051A   26180.52398309  .00000165  00000+0  00000+0 0  9992
2 29526   2.0354  81.0003 0005368  15.4734  44.2081  1.00269758 51393
WILDBLUE-1              
1 29643U 06054A   26180.49514472 -.00000040  00000+0  00000+0 0  9995
2 29643   2.8336  80.3370 0001744  13.4249 250.8503  1.00271343 53910
SKYNET 5A               
1 30794U 07007B   26179.99886058 -.00000265  00000+0  00000+0 0  9997
2 30794   5.3296  73.6001 0003702  30.3642 267.9258  1.00270604 70812
ANIK F3                 
1 31102U 07009A   26180.49367139  .00000009  00000+0  00000+0 0  9999
2 31102   1.2282  83.7211 0002930  10.8794 241.9888  1.00271006 46680
ASTRA 1L                
1 31306U 07016A   26180.40710375 -.00000174  00000+0  00000+0 0  9992
2 31306   1.3521  81.4992 0005710  19.1086 298.9443  1.00272542 45100
GALAXY 17 (G-17)        
1 31307U 07016B   26180.24489139 -.00000198  00000+0  00000+0 0  9992
2 31307   3.0014  79.7562 0004623  22.6029 178.1131  1.00270657 69922
INTELSAT 11 (IS-11)     
1 32253U 07044B   26179.89028425  .00000069  00000+0  00000+0 0  9996
2 32253   3.5949  78.5353 0003209  85.2697 148.0170  0.99047604 68564
WGS F1 (USA 195)        
1 32258U 07046A   26180.29491583 -.00000256  00000+0  00000+0 0  9997
2 32258   0.0226  73.2245 0000526   5.9832 261.8563  1.00274083 52457
SKYNET 5B               
1 32294U 07056B   26179.88057644  .00000146  00000+0  00000+0 0  9994
2 32294   5.2811  73.3657 0003422  28.3331 157.3576  1.00271879 68318
ASTRA 4A                
1 32299U 07057A   26180.37555588  .00000044  00000+0  00000+0 0  9993
2 32299   0.0137 341.1823 0002657 117.7379 318.5319  1.00271836 51762
HORIZONS-2              
1 32388U 07063B   26180.50259809 -.00000245  00000+0  00000+0 0  9995
2 32388   2.6325  80.4839 0004152   9.2827 294.9423  1.00270468 67932
THURAYA-3               
1 32404U 08001A   26176.68098810  .00000026  00000+0  00000+0 0  9990
2 32404   6.0035  35.8134 0001890 142.0341  49.0680  1.00009028 67578
THOR 5                  
1 32487U 08006A   26180.30314921  .00000002  00000+0  00000+0 0  9998
2 32487   0.0396 247.8420 0002754 213.8148 284.1067  1.00271811 67435
AMC-14                  
1 32708U 08011A   26179.64070497 -.00000100  00000+0  00000+0 0  9992
2 32708  24.0232  20.3826 0040759   7.5300 189.4749  1.00419620 68285
DIRECTV 11              
1 32729U 08013A   26180.28364912 -.00000114  00000+0  00000+0 0  9992
2 32729   0.0111 257.1678 0000379 251.0248 132.1009  1.00268101 45717
ICO G1                  
1 32763U 08016A   26180.49878475 -.00000165  00000+0  00000+0 0  9996
2 32763   5.5331  36.1097 0002190  53.2857 274.8835  1.00269824 66661
VINASAT-1               
1 32767U 08018A   26180.55044823 -.00000317  00000+0  00000+0 0  9990
2 32767   0.0155 325.7824 0001615 139.9402 142.0043  1.00271497 66715
STAR ONE C2             
1 32768U 08018B   26180.50433145 -.00000267  00000+0  00000+0 0  9999
2 32768   1.2712  82.3658 0003033  27.4014 284.3666  1.00270088 66777
AMOS-3                  
1 32794U 08022A   26180.52675644  .00000108  00000+0  00000+0 0  9990
2 32794   0.4861  86.0756 0002648  67.5871   1.7365  1.00483549 82468
GALAXY 18 (G-18)        
1 32951U 08024A   26180.49280471  .00000036  00000+0  00000+0 0  9993
2 32951   0.0051 103.8543 0003237   0.2781 227.8497  1.00271516 45972
ZHONGXING-9             
1 33051U 08028A   26180.39293259 -.00000238  00000+0  00000+0 0  9991
2 33051   0.7999  85.2220 0004065 359.3562  66.7366  1.00270666 66166
SKYNET 5C               
1 33055U 08030A   26180.44233066 -.00000132  00000+0  00000+0 0  9997
2 33055   3.8190  76.9013 0004470  28.3852 313.6861  1.00271675 66074
TURKSAT 3A              
1 33056U 08030B   26180.52554309  .00000157  00000+0  00000+0 0  9999
2 33056   0.0407  73.2253 0005497   5.5370  70.0318  1.00270317 52486
ECHOSTAR 11             
1 33207U 08035A   26180.49540472 -.00000048  00000+0  00000+0 0  9994
2 33207   1.0358  84.0619 0002705   2.3654 259.6911  1.00272207 51332
SUPERBIRD-C2            
1 33274U 08038A   26180.54416617 -.00000297  00000+0  00000+0 0  9996
2 33274   2.3916  81.1200 0006549  30.3794 138.0311  1.00271576105859
INMARSAT 4-F3           
1 33278U 08039A   26180.49774475 -.00000132  00000+0  00000+0 0  9992
2 33278   4.3034  31.6611 0002599  69.3188 257.7868  1.00272351 46663
NIMIQ 4                 
1 33373U 08044A   26180.50095141  .00000000  00000+0  00000+0 0  9995
2 33373   0.0340  53.2043 0001895  47.0675 275.6955  1.00267847 65103
GALAXY 19 (G-19)        
1 33376U 08045A   26180.49800475 -.00000128  00000+0  00000+0 0  9993
2 33376   0.0559 256.2911 0002925 214.3801 249.1858  1.00272011 65020
