OBJECT_NAME,OBJECT_ID,EPOCH,MEAN_MOTION,ECCENTRICITY,INCLINATION,RA_OF_ASC_NODE,ARG_OF_PERICENTER,MEAN_ANOMALY,EPHEMERIS_TYPE,CLASSIFICATION_TYPE,NORAD_CAT_ID,ELEMENT_SET_NO,REV_AT_EPOCH,BSTAR,MEAN_MOTION_DOT,MEAN_MOTION_DDOT
JCSAT-3A,2006-033A,2026-06-29T13:12:38.727072,1.00270753,.0002527,0.0168,318.4520,148.3057,137.0312,0,U,29272,999,4786,0,-.334E-5,0
KOREASAT 5 (MUGUNGWHA 5),2006-034A,2026-06-29T12:57:01.363968,1.00270951,.000193,1.8157,82.8518,52.9395,89.1441,0,U,29349,999,4144,0,-.348E-5,0
DIRECTV 9S,2006-043A,2026-06-29T11:55:52.730112,1.00271881,.0005445,2.4513,80.7656,20.9179,253.6645,0,U,29494,999,5150,0,-.104E-5,0
OPTUS D1,2006-043B,2026-06-29T11:25:23.303424,1.00270542,.000372,3.0651,79.5117,11.4720,149.8777,0,U,29495,999,7224,0,-.176E-5,0
BADR-4,2006-051A,2026-06-29T12:34:32.138976,1.00269758,.0005368,2.0354,81.0003,15.4734,44.2081,0,U,29526,999,5139,0,.165E-5,0
WILDBLUE-1,2006-054A,2026-06-29T11:53:00.503808,1.00271343,.0001744,2.8336,80.3370,13.4249,250.8503,0,U,29643,999,5391,0,-.4E-6,0
SKYNET 5A,2007-007B,2026-06-28T23:58:21.554112,1.00270604,.00037025,5.3296,73.6001,30.3642,267.9258,0,U,30794,999,7081,0,-.265E-5,0
ANIK F3,2007-009A,2026-06-29T11:50:53.208096,1.00271006,.000293,1.2282,83.7211,10.8794,241.9888,0,U,31102,999,4668,0,.9E-7,0
ASTRA 1L,2007-016A,2026-06-29T09:46:13.764000,1.00272542,.000571,1.3521,81.4992,19.1086,298.9443,0,U,31306,999,4510,0,-.174E-5,0
GALAXY 17 (G-17),2007-016B,2026-06-29T05:52:38.616096,1.00270657,.0004623,3.0014,79.7562,22.6029,178.1131,0,U,31307,999,6992,0,-.198E-5,0
INTELSAT 11 (IS-11),2007-044B,2026-06-28T21:22:00.559200,0.99047604,.00032091,3.5949,78.5353,85.2697,148.0170,0,U,32253,999,6856,0,.69E-6,0
WGS F1 (USA 195),2007-046A,2026-06-29T07:04:40.727712,1.00274083,.0000526,0.0226,73.2245,5.9832,261.8563,0,U,32258,999,5245,0,-.256E-5,0
SKYNET 5B,2007-056B,2026-06-28T21:08:01.804416,1.00271879,.00034228,5.2811,73.3657,28.3331,157.3576,0,U,32294,999,6831,0,.146E-5,0
ASTRA 4A,2007-057A,2026-06-29T09:00:48.028032,1.00271836,.0002657,0.0137,341.1823,117.7379,318.5319,0,U,32299,999,5176,0,.44E-6,0
HORIZONS-2,2007-063B,2026-06-29T12:03:44.474976,1.00270468,.0004152,2.6325,80.4839,9.2827,294.9423,0,U,32388,999,6793,0,-.245E-5,0
THURAYA-3,2008-001A,2026-06-25T16:20:37.371840,1.00009028,.00018904,6.0035,35.8134,142.0341,49.0680,0,U,32404,999,6757,0,.26E-6,0
THOR 5,2008-006A,2026-06-29T07:16:32.091744,1.00271811,.0002754,0.0396,247.8420,213.8148,284.1067,0,U,32487,999,6743,0,.2E-7,0
AMC-14,2008-011A,2026-06-28T15:22:36.909408,1.00419620,.00407596,24.0232,20.3826,7.5300,189.4749,0,U,32708,999,6828,0,-.1E-5,0
DIRECTV 11,2008-013A,2026-06-29T06:48:27.283968,1.00268101,.0000379,0.0111,257.1678,251.0248,132.1009,0,U,32729,999,4571,0,-.114E-5,0
ICO G1,2008-016A,2026-06-29T11:58:15.002400,1.00269824,.000219,5.5331,36.1097,53.2857,274.8835,0,U,32763,999,6666,0,-.165E-5,0
VINASAT-1,2008-018A,2026-06-29T13:12:38.727072,1.00271497,.0001615,0.0155,325.7824,139.9402,142.0043,0,U,32767,999,6671,0,-.317E-5,0
STAR ONE C2,2008-018B,2026-06-29T12:06:14.237280,1.00270088,.0003033,1.2712,82.3658,27.4014,284.3666,0,U,32768,999,6677,0,-.267E-5,0
AMOS-3,2008-022A,2026-06-29T12:38:31.756416,1.00483549,.0002648,0.4861,86.0756,67.5871,1.7365,0,U,32794,999,8246,0,.108E-5,0
GALAXY 18 (G-18),2008-024A,2026-06-29T11:49:38.326944,1.00271516,.0003237,0.0051,103.8543,0.2781,227.8497,0,U,32951,999,4597,0,.36E-6,0
ZHONGXING-9,2008-028A,2026-06-29T09:25:49.375776,1.00270666,.0004065,0.7999,85.2220,359.3562,66.7366,0,U,33051,999,6616,0,-.238E-5,0
SKYNET 5C,2008-030A,2026-06-29T10:36:57.369024,1.00271675,.000447,3.8190,76.9013,28.3852,313.6861,0,U,33055,999,6607,0,-.132E-5,0
TURKSAT 3A,2008-030B,2026-06-29T12:36:46.922976,1.00270317,.0005497,0.0407,73.2253,5.5370,70.0318,0,U,33056,999,5248,0,.157E-5,0
ECHOSTAR 11,2008-035A,2026-06-29T11:53:22.967808,1.00272207,.0002705,1.0358,84.0619,2.3654,259.6911,0,U,33207,999,5133,0,-.48E-6,0
SUPERBIRD-C2,2008-038A,2026-06-29T13:03:35.957088,1.00271576,.0006549,2.3916,81.1200,30.3794,138.0311,0,U,33274,999,10585,0,-.297E-5,0
INMARSAT 4-F3,2008-039A,2026-06-29T11:56:45.146400,1.00272351,.0002599,4.3034,31.6611,69.3188,257.7868,0,U,33278,999,4666,0,-.132E-5,0
NIMIQ 4,2008-044A,2026-06-29T12:01:22.201824,1.00267847,.0001895,0.0340,53.2043,47.0675,275.6955,0,U,33373,999,6510,0,0,0
GALAXY 19 (G-19),2008-045A,2026-06-29T11:57:07.610400,1.00272011,.0002925,0.0559,256.2911,214.3801,249.1858,0,U,33376,999,6502,0,-.128E-5,0
